0 COSMOS 1275 DEB
1 13807U 81053HE  13281.52648644  .00001072  00000-0  56770-3 0  7615
2 13807 082.9524 113.6953 0010642 326.1133 094.3732 14.12857611322709
0 COSMOS 1275 DEB
1 13807U 81053HE  13283.02591396  .00001152  00000-0  61085-3 0  7628
2 13807 082.9523 112.5137 0010577 321.3821 161.1749 14.12863471322913
0 COSMOS 1275 DEB
1 13807U 81053HE  13286.48460369  .00000957  00000-0  50592-3 0  7641
2 13807 082.9523 109.7880 0010552 309.7686 114.4921 14.12869793323409
0 COSMOS 1275 DEB
1 13807U 81053HE  13287.83007009  .00001089  00000-0  57647-3 0  7655
2 13807 082.9523 108.7277 0010628 305.2100 118.5381 14.12873119323596
0 COSMOS 1275 DEB
1 13807U 81053HE  13288.97454700  .00001074  00000-0  56878-3 0  7665
2 13807 082.9523 107.8256 0010739 301.3368 180.2104 14.12876390323750
0 COSMOS 1275 DEB
1 13807U 81053HE  13290.24923848  .00001066  00000-0  56414-3 0  7670
2 13807 082.9525 106.8210 0010799 296.9910 184.3011 14.12878813323933
0 COSMOS 1275 DEB
1 13807U 81053HE  13291.51061057  .00001027  00000-0  54352-3 0  7683
2 13807 082.9527 105.8270 0010790 292.6337 120.7065 14.12881200324115
0 COSMOS 1275 DEB
1 13807U 81053HE  13292.86995205  .00001181  00000-0  62596-3 0  7694
2 13807 082.9528 104.7558 0010861 288.0441 195.3744 14.12882857324309
0 COSMOS 1275 DEB
1 13807U 81053HE  13294.00366458  .00001183  00000-0  62702-3 0  7707
2 13807 082.9528 103.8624 0010969 284.2626 202.2757 14.12885097324463
0 COSMOS 1275 DEB
1 13807U 81053HE  13295.20708714  .00001233  00000-0  65406-3 0  7716
2 13807 082.9529 102.9140 0011067 280.3632 203.6726 14.12886966324637
